CCSDS_OMM_VERS = 2.0
CREATION_DATE  = 
ORIGINATOR     = 

OBJECT_NAME    = SL-16 R/B
OBJECT_ID      = 1998-045B
CENTER_NAME    = EARTH
REF_FRAME      = TEME
TIME_SYSTEM    = UTC
MEAN_ELEMENT_THEORY = SGP/SGP4

EPOCH          = 2026-04-05T06:32:16.764864
MEAN_MOTION    = 14.16193801
ECCENTRICITY   = .00082665
INCLINATION    = 71.0089
RA_OF_ASC_NODE = 125.6733
ARG_OF_PERICENTER = 329.3382
MEAN_ANOMALY   = 30.7257

EPHEMERIS_TYPE = 0
CLASSIFICATION_TYPE = U
NORAD_CAT_ID   = 25407
ELEMENT_SET_NO = 999
REV_AT_EPOCH   = 43086
BSTAR          = .91104075E-4
MEAN_MOTION_DOT = .133E-5
MEAN_MOTION_DDOT = 0

CCSDS_OMM_VERS = 2.0
CREATION_DATE  = 
ORIGINATOR     = 

OBJECT_NAME    = ISS (ZARYA)
OBJECT_ID      = 1998-067A
CENTER_NAME    = EARTH
REF_FRAME      = TEME
TIME_SYSTEM    = UTC
MEAN_ELEMENT_THEORY = SGP/SGP4

EPOCH          = 2026-04-05T00:53:27.707136
MEAN_MOTION    = 15.48778120
ECCENTRICITY   = .00062949
INCLINATION    = 51.6327
RA_OF_ASC_NODE = 302.0967
ARG_OF_PERICENTER = 273.6206
MEAN_ANOMALY   = 86.4063

EPHEMERIS_TYPE = 0
CLASSIFICATION_TYPE = U
NORAD_CAT_ID   = 25544
ELEMENT_SET_NO = 999
REV_AT_EPOCH   = 56041
BSTAR          = .17854288E-3
MEAN_MOTION_DOT = .9326E-4
MEAN_MOTION_DDOT = 0

CCSDS_OMM_VERS = 2.0
CREATION_DATE  = 
ORIGINATOR     = 

OBJECT_NAME    = CZ-4B R/B
OBJECT_ID      = 1999-025C
CENTER_NAME    = EARTH
REF_FRAME      = TEME
TIME_SYSTEM    = UTC
MEAN_ELEMENT_THEORY = SGP/SGP4

EPOCH          = 2026-04-05T02:53:25.693728
MEAN_MOTION    = 14.18270888
ECCENTRICITY   = .00359826
INCLINATION    = 98.6571
RA_OF_ASC_NODE = 138.7692
ARG_OF_PERICENTER = 268.7613
MEAN_ANOMALY   = 149.2331

EPHEMERIS_TYPE = 0
CLASSIFICATION_TYPE = U
NORAD_CAT_ID   = 25732
ELEMENT_SET_NO = 999
REV_AT_EPOCH   = 39191
BSTAR          = .52384229E-4
MEAN_MOTION_DOT = .65E-6
MEAN_MOTION_DDOT = 0

CCSDS_OMM_VERS = 2.0
CREATION_DATE  = 
ORIGINATOR     = 

OBJECT_NAME    = OKEAN-O
OBJECT_ID      = 1999-039A
CENTER_NAME    = EARTH
REF_FRAME      = TEME
TIME_SYSTEM    = UTC
MEAN_ELEMENT_THEORY = SGP/SGP4

EPOCH          = 2026-04-05T03:33:24.208704
MEAN_MOTION    = 14.80380631
ECCENTRICITY   = .00009345
INCLINATION    = 97.9388
RA_OF_ASC_NODE = 154.7634
ARG_OF_PERICENTER = 105.3629
MEAN_ANOMALY   = 254.7686

EPHEMERIS_TYPE = 0
CLASSIFICATION_TYPE = U
NORAD_CAT_ID   = 25860
ELEMENT_SET_NO = 999
REV_AT_EPOCH   = 43830
BSTAR          = .12817262E-3
MEAN_MOTION_DOT = .926E-5
MEAN_MOTION_DDOT = 0

CCSDS_OMM_VERS = 2.0
CREATION_DATE  = 
ORIGINATOR     = 

OBJECT_NAME    = SL-16 R/B
OBJECT_ID      = 1999-039B
CENTER_NAME    = EARTH
REF_FRAME      = TEME
TIME_SYSTEM    = UTC
MEAN_ELEMENT_THEORY = SGP/SGP4

EPOCH          = 2026-04-05T04:05:52.824192
MEAN_MOTION    = 14.81770769
ECCENTRICITY   = .00151382
INCLINATION    = 97.9909
RA_OF_ASC_NODE = 154.2203
ARG_OF_PERICENTER = 166.4752
MEAN_ANOMALY   = 193.6869

EPHEMERIS_TYPE = 0
CLASSIFICATION_TYPE = U
NORAD_CAT_ID   = 25861
ELEMENT_SET_NO = 999
REV_AT_EPOCH   = 44078
BSTAR          = .11507232E-3
MEAN_MOTION_DOT = .855E-5
MEAN_MOTION_DDOT = 0

CCSDS_OMM_VERS = 2.0
CREATION_DATE  = 
ORIGINATOR     = 

OBJECT_NAME    = DELTA 2 R/B
OBJECT_ID      = 1999-041E
CENTER_NAME    = EARTH
REF_FRAME      = TEME
TIME_SYSTEM    = UTC
MEAN_ELEMENT_THEORY = SGP/SGP4

EPOCH          = 2026-04-04T23:42:56.534976
MEAN_MOTION    = 14.11899486
ECCENTRICITY   = .05026311
INCLINATION    = 51.7610
RA_OF_ASC_NODE = 196.2234
ARG_OF_PERICENTER = 65.9837
MEAN_ANOMALY   = 299.2860

EPHEMERIS_TYPE = 0
CLASSIFICATION_TYPE = U
NORAD_CAT_ID   = 25876
ELEMENT_SET_NO = 999
REV_AT_EPOCH   = 36674
BSTAR          = .16501072E-3
MEAN_MOTION_DOT = .779E-5
MEAN_MOTION_DDOT = 0

CCSDS_OMM_VERS = 2.0
CREATION_DATE  = 
ORIGINATOR     = 

OBJECT_NAME    = HELIOS 1B
OBJECT_ID      = 1999-064A
CENTER_NAME    = EARTH
REF_FRAME      = TEME
TIME_SYSTEM    = UTC
MEAN_ELEMENT_THEORY = SGP/SGP4

EPOCH          = 2026-04-05T06:43:26.640480
MEAN_MOTION    = 14.87810915
ECCENTRICITY   = .00014423
INCLINATION    = 98.1665
RA_OF_ASC_NODE = 358.3022
ARG_OF_PERICENTER = 42.9432
MEAN_ANOMALY   = 317.1895

EPHEMERIS_TYPE = 0
CLASSIFICATION_TYPE = U
NORAD_CAT_ID   = 25977
ELEMENT_SET_NO = 999
REV_AT_EPOCH   = 68921
BSTAR          = .32797092E-3
MEAN_MOTION_DOT = .2938E-4
MEAN_MOTION_DDOT = 0

CCSDS_OMM_VERS = 2.0
CREATION_DATE  = 
ORIGINATOR     = 

OBJECT_NAME    = TERRA
OBJECT_ID      = 1999-068A
CENTER_NAME    = EARTH
REF_FRAME      = TEME
TIME_SYSTEM    = UTC
MEAN_ELEMENT_THEORY = SGP/SGP4

EPOCH          = 2026-04-05T05:04:52.703040
MEAN_MOTION    = 14.61045304
ECCENTRICITY   = .00036711
INCLINATION    = 97.9537
RA_OF_ASC_NODE = 147.6258
ARG_OF_PERICENTER = 97.2018
MEAN_ANOMALY   = 284.2865

EPHEMERIS_TYPE = 0
CLASSIFICATION_TYPE = U
NORAD_CAT_ID   = 25994
ELEMENT_SET_NO = 999
REV_AT_EPOCH   = 39895
BSTAR          = .14809783E-3
MEAN_MOTION_DOT = .683E-5
MEAN_MOTION_DDOT = 0

CCSDS_OMM_VERS = 2.0
CREATION_DATE  = 
ORIGINATOR     = 

OBJECT_NAME    = SL-16 R/B
OBJECT_ID      = 2000-006B
CENTER_NAME    = EARTH
REF_FRAME      = TEME
TIME_SYSTEM    = UTC
MEAN_ELEMENT_THEORY = SGP/SGP4

EPOCH          = 2026-04-05T07:04:27.057504
MEAN_MOTION    = 14.15831310
ECCENTRICITY   = .00151799
INCLINATION    = 71.0041
RA_OF_ASC_NODE = 41.8920
ARG_OF_PERICENTER = 148.1103
MEAN_ANOMALY   = 212.0942

EPHEMERIS_TYPE = 0
CLASSIFICATION_TYPE = U
NORAD_CAT_ID   = 26070
ELEMENT_SET_NO = 999
REV_AT_EPOCH   = 35232
BSTAR          = .52102264E-4
MEAN_MOTION_DOT = .55E-6
MEAN_MOTION_DDOT = 0

CCSDS_OMM_VERS = 2.0
CREATION_DATE  = 
ORIGINATOR     = 

OBJECT_NAME    = TITAN 4B R/B
OBJECT_ID      = 2000-047B
CENTER_NAME    = EARTH
REF_FRAME      = TEME
TIME_SYSTEM    = UTC
MEAN_ELEMENT_THEORY = SGP/SGP4

EPOCH          = 2026-04-05T06:19:50.298240
MEAN_MOTION    = 15.09816587
ECCENTRICITY   = .00404914
INCLINATION    = 67.9899
RA_OF_ASC_NODE = 325.7738
ARG_OF_PERICENTER = 4.3669
MEAN_ANOMALY   = 355.7825

EPHEMERIS_TYPE = 0
CLASSIFICATION_TYPE = U
NORAD_CAT_ID   = 26474
ELEMENT_SET_NO = 999
REV_AT_EPOCH   = 39692
BSTAR          = .27264895E-3
MEAN_MOTION_DOT = .4368E-4
MEAN_MOTION_DDOT = 0

CCSDS_OMM_VERS = 2.0
CREATION_DATE  = 
ORIGINATOR     = 

OBJECT_NAME    = ENVISAT
OBJECT_ID      = 2002-009A
CENTER_NAME    = EARTH
REF_FRAME      = TEME
TIME_SYSTEM    = UTC
MEAN_ELEMENT_THEORY = SGP/SGP4

EPOCH          = 2026-04-05T07:55:18.905088
MEAN_MOTION    = 14.39046909
ECCENTRICITY   = .00011731
INCLINATION    = 98.3772
RA_OF_ASC_NODE = 48.3005
ARG_OF_PERICENTER = 82.2612
MEAN_ANOMALY   = 72.9744

EPHEMERIS_TYPE = 0
CLASSIFICATION_TYPE = U
NORAD_CAT_ID   = 27386
ELEMENT_SET_NO = 999
REV_AT_EPOCH   = 26300
BSTAR          = .73590138E-4
MEAN_MOTION_DOT = .184E-5
MEAN_MOTION_DDOT = 0

CCSDS_OMM_VERS = 2.0
CREATION_DATE  = 
ORIGINATOR     = 

OBJECT_NAME    = IDEFIX & ARIANE 42P R/B
OBJECT_ID      = 2002-021B
CENTER_NAME    = EARTH
REF_FRAME      = TEME
TIME_SYSTEM    = UTC
MEAN_ELEMENT_THEORY = SGP/SGP4

EPOCH          = 2026-04-05T06:36:02.896128
MEAN_MOTION    = 14.31045719
ECCENTRICITY   = .00128709
INCLINATION    = 98.5900
RA_OF_ASC_NODE = 33.5686
ARG_OF_PERICENTER = 107.2357
MEAN_ANOMALY   = 253.0236

EPHEMERIS_TYPE = 0
CLASSIFICATION_TYPE = U
NORAD_CAT_ID   = 27422
ELEMENT_SET_NO = 999
REV_AT_EPOCH   = 24782
BSTAR          = .17730949E-3
MEAN_MOTION_DOT = .424E-5
MEAN_MOTION_DDOT = 0

