SL-16 R/B               
1 25407U 98045B   26095.27241626  .00000133  00000+0  91104-4 0  9991
2 25407  71.0089 125.6733 0008266 329.3382  30.7257 14.16193801430863
ISS (ZARYA)             
1 25544U 98067A   26095.03712624  .00009326  00000+0  17854-3 0  9994
2 25544  51.6327 302.0967 0006294 273.6206  86.4063 15.48778120560416
CZ-4B R/B               
1 25732U 99025C   26095.12043627  .00000065  00000+0  52384-4 0  9997
2 25732  98.6571 138.7692 0035982 268.7613 149.2331 14.18270888391916
OKEAN-O                 
1 25860U 99039A   26095.14819686  .00000926  00000+0  12817-3 0  9994
2 25860  97.9388 154.7634 0000934 105.3629 254.7686 14.80380631438309
SL-16 R/B               
1 25861U 99039B   26095.17075028  .00000855  00000+0  11507-3 0  9998
2 25861  97.9909 154.2203 0015138 166.4752 193.6869 14.81770769440788
DELTA 2 R/B             
1 25876U 99041E   26094.98815434  .00000779  00000+0  16501-3 0  9992
2 25876  51.7610 196.2234 0502631  65.9837 299.2860 14.11899486366745
HELIOS 1B               
1 25977U 99064A   26095.28016945  .00002938  00000+0  32797-3 0  9997
2 25977  98.1665 358.3022 0001442  42.9432 317.1895 14.87810915689219
TERRA                   
1 25994U 99068A   26095.21172110  .00000683  00000+0  14810-3 0  9991
2 25994  97.9537 147.6258 0003671  97.2018 284.2865 14.61045304398955
SL-16 R/B               
1 26070U 00006B   26095.29475761  .00000055  00000+0  52102-4 0  9997
2 26070  71.0041  41.8920 0015179 148.1103 212.0942 14.15831310352327
TITAN 4B R/B            
1 26474U 00047B   26095.26377660  .00004368  00000+0  27265-3 0  9998
2 26474  67.9899 325.7738 0040491   4.3669 355.7825 15.09816587396928
ENVISAT                 
1 27386U 02009A   26095.33007992  .00000184  00000+0  73590-4 0  9992
2 27386  98.3772  48.3005 0001173  82.2612  72.9744 14.39046909263006
IDEFIX & ARIANE 42P R/B 
1 27422U 02021B   26095.27503352  .00000424  00000+0  17731-3 0  9992
2 27422  98.5900  33.5686 0012870 107.2357 253.0236 14.31045719247823
